SKYKRAFT-1A             
1 55054U 23001AX  26068.71064616  .00008177  00000+0  30069-3 0  9991
2 55054  97.3349 127.6290 0011277 121.5092 238.7251 15.28083228176529
STARLINK-35793          
1 67179U 25303S   26068.08622385  .00032967  00000+0  12006-2 0  9996
2 67179  43.0009 314.0538 0001815 262.6995  97.3650 15.27621373 12646
